NORAD_CAT_ID,OBJECT_NAME,OBJECT_TYPE,EPOCH,MEAN_MOTION,ECCENTRICITY,INCLINATION,RA_OF_ASC_NODE,ARG_OF_PERICENTER,MEAN_ANOMALY,BSTAR,MEAN_MOTION_DOT,MEAN_MOTION_DDOT,TLE_LINE0,TLE_LINE1,TLE_LINE2,SEMIMAJOR_AXIS,PERIOD,APOGEE,PERIGEE,DECAYED
56805.0,STARLINK-6064,PAYLOAD,2023-12-20 14:00:01,15.02795586,0.0003156,70.0,206.9454,259.4118,301.335,-0.073088,-0.00906696,0.0,0 STARLINK-6064,1 56805U 23078AQ  23354.58334491 -.00906696  00000-0 -73088-1 0  9993,2 56805  70.0000 206.9454 0003156 259.4118 301.3350 15.02795586 32095,6936.418,95.821,560.472,556.094,0.0
56805.0,STARLINK-6064,PAYLOAD,2023-12-20 22:00:00,15.02126217,0.0003121,69.9998,206.0996,265.214,297.987,-0.073361,-0.00894947,0.0,0 STARLINK-6064,1 56805U 23078AQ  23354.91667824 -.00894947  00000-0 -73361-1 0  9998,2 56805  69.9998 206.0996 0003121 265.2140 297.9870 15.02126217  5964,6938.478,95.864,562.509,558.178,0.0
56805.0,STARLINK-6064,PAYLOAD,2023-12-21 06:00:00,15.01507206,0.0003049,69.9997,205.2545,263.6426,301.2074,-0.080266,-0.00969213,0.0,0 STARLINK-6064,1 56805U 23078AQ  23355.25001157 -.00969213  00000-0 -80266-1 0  9998,2 56805  69.9997 205.2545 0003049 263.6426 301.2074 15.01507206 32192,6940.385,95.904,564.366,560.134,0.0
56805.0,STARLINK-6064,PAYLOAD,2023-12-21 14:00:01,15.00840513,0.0003105,70.0,204.4105,259.4053,306.3163,-0.077288,-0.00910137,0.0,0 STARLINK-6064,1 56805U 23078AQ  23355.58334491 -.00910137  00000-0 -77288-1 0  9995,2 56805  70.0000 204.4105 0003105 259.4053 306.3163 15.00840513  6078,6942.44,95.946,566.461,562.15,0.0
56805.0,STARLINK-6064,PAYLOAD,2023-12-21 22:00:01,15.00157641,0.0003108,69.9998,203.5672,265.9955,299.9017,-0.074843,-0.00868778,0.0,0 STARLINK-6064,1 56805U 23078AQ  23355.91668981 -.00868778  00000-0 -74843-1 0  9993,2 56805  69.9998 203.5672 0003108 265.9955 299.9017 15.00157641 32297,6944.547,95.99,568.57,564.253,0.0
56805.0,STARLINK-6064,PAYLOAD,2023-12-22 06:00:00,14.99385756,0.0003182,69.9996,202.7248,265.3652,299.7889,-0.012982,-0.00155817,0.0,0 STARLINK-6064,1 56805U 23078AQ  23356.25001157 -.00155817  00000-0 -12982-1 0  9996,2 56805  69.9996 202.7248 0003182 265.3652 299.7889 14.99385756 32343,6946.93,96.039,571.005,566.584,0.0
56805.0,STARLINK-6064,PAYLOAD,2023-12-22 14:00:01,14.99425858,0.0003231,70.0,201.8832,260.8046,303.0015,-0.030939,-0.00361027,0.0,0 STARLINK-6064,1 56805U 23078AQ  23356.58334491 -.00361027  00000-0 -30939-1 0  9996,2 56805  70.0000 201.8832 0003231 260.8046 303.0015 14.99425858 32396,6946.806,96.037,570.916,566.427,0.0
56805.0,STARLINK-6064,PAYLOAD,2023-12-22 22:00:00,14.99161706,0.0003272,69.9998,201.0414,268.4529,294.0209,-0.075694,-0.00856941,0.0,0 STARLINK-6064,1 56805U 23078AQ  23356.91667824 -.00856941  00000-0 -75694-1 0  9993,2 56805  69.9998 201.0414 0003272 268.4529 294.0209 14.99161706 32441,6947.622,96.054,571.76,567.214,0.0
56805.0,STARLINK-6064,PAYLOAD,2023-12-23 06:00:00,14.98404254,0.0003245,69.9995,200.2001,266.7686,293.837,-0.011847,-0.00138955,0.0,0 STARLINK-6064,1 56805U 23078AQ  23357.25001157 -.00138955  00000-0 -11847-1 0  9990,2 56805  69.9995 200.2001 0003245 266.7686 293.8370 14.98404254 32494,6949.963,96.102,574.084,569.573,0.0
56805.0,STARLINK-6064,PAYLOAD,2023-12-23 14:00:01,14.98334339,0.0003302,69.9997,199.36,262.4512,295.6577,4.9504e-06,-3.4e-07,0.0,0 STARLINK-6064,1 56805U 23078AQ  23357.58334491 -.00000034  00000-0  49504-5 0  9996,2 56805  69.9997 199.3600 0003302 262.4512 295.6577 14.98334339 32545,6950.179,96.107,574.339,569.75,0.0
56805.0,STARLINK-6064,PAYLOAD,2023-12-23 22:00:00,14.98266127,0.0003182,69.9995,198.5194,270.5537,285.0513,0.0051204,0.0006144,0.0,0 STARLINK-6064,1 56805U 23078AQ  23357.91667824  .00061440  00000-0  51204-2 0  9996,2 56805  69.9995 198.5194 0003182 270.5537 285.0513 14.98266127 32592,6950.39,96.111,574.467,570.044,0.0
56805.0,STARLINK-6064,PAYLOAD,2023-12-24 14:00:01,14.98323732,0.0003147,69.9994,196.8385,262.8546,287.6385,0.00017799,2.031e-05,0.0,0 STARLINK-6064,1 56805U 23078AQ  23358.58334491  .00002031  00000-0  17799-3 0  9994,2 56805  69.9994 196.8385 0003147 262.8546 287.6385 14.98323732 32691,6950.212,96.107,574.265,569.89,0.0
56805.0,STARLINK-6064,PAYLOAD,2023-12-24 22:00:00,14.98302234,0.0003151,69.9992,195.9979,269.4576,278.5149,0.0025631,0.00030602,0.0,0 STARLINK-6064,1 56805U 23078AQ  23358.91667824  .00030602  00000-0  25631-2 0  9998,2 56805  69.9992 195.9979 0003151 269.4576 278.5149 14.98302234  5904,6950.279,96.109,574.334,569.954,0.0
56805.0,STARLINK-6064,PAYLOAD,2023-12-25 14:00:01,14.98335702,0.0003182,69.9991,194.317,262.7595,280.1409,-0.00040084,-4.873e-05,0.0,0 STARLINK-6064,1 56805U 23078AQ  23359.58334491 -.00004873  00000-0 -40084-3 0  9996,2 56805  69.9991 194.3170 0003182 262.7595 280.1409 14.98335702  5892,6950.175,96.107,574.252,569.829,0.0
56805.0,STARLINK-6064,PAYLOAD,2023-12-25 22:00:00,14.98310185,0.0003187,69.9991,193.4765,269.3106,271.0819,0.0026519,0.00031676,0.0,0 STARLINK-6064,1 56805U 23078AQ  23359.91667824  .00031676  00000-0  26519-2 0  9997,2 56805  69.9991 193.4765 0003187 269.3106 271.0819 14.98310185 32890,6950.254,96.108,574.334,569.904,0.0
56805.0,STARLINK-6064,PAYLOAD,2023-12-26 14:00:01,14.98348147,0.0003226,69.9996,191.7956,263.1701,272.1704,-0.0010515,-0.00012623,0.0,0 STARLINK-6064,1 56805U 23078AQ  23360.58334491 -.00012623  00000-0 -10515-2 0  9995,2 56805  69.9996 191.7956 0003226 263.1701 272.1704 14.98348147 32990,6950.137,96.106,574.244,569.76,0.0
56805.0,STARLINK-6064,PAYLOAD,2023-12-26 22:00:00,14.9831624,0.00032,69.9997,190.9551,269.7013,263.1425,0.0029401,0.00035152,0.0,0 STARLINK-6064,1 56805U 23078AQ  23360.91667824  .00035152  00000-0  29401-2 0  9995,2 56805  69.9997 190.9551 0003200 269.7013 263.1425 14.98316240  5622,6950.235,96.108,574.325,569.876,0.0
56805.0,STARLINK-6064,PAYLOAD,2023-12-27 00:00:00,14.98320994,0.0003211,69.9996,190.745,270.1235,352.0897,0.002679,0.00032012,0.0,0 STARLINK-6064,1 56805U 23078AQ  23361.00001157  .00032012  00000-0  26790-2 0  9997,2 56805  69.9996 190.7450 0003211 270.1235 352.0897 14.98320994 33051,6950.221,96.108,574.317,569.854,0.0
56805.0,STARLINK-6064,PAYLOAD,2023-12-27 14:51:21,14.98333357,0.0003118,69.9989,189.1838,265.8436,94.2367,6.6098e-05,6.96e-06,0.0,0 STARLINK-6064,1 56805U 23078AQ  23361.61899501  .00000696  00000-0  66098-4 0  9992,2 56805  69.9989 189.1838 0003118 265.8436  94.2367 14.98333357 32889,6950.183,96.107,574.215,569.88,0.0
56805.0,STARLINK-6064,PAYLOAD,2023-12-27 19:39:45,14.98331356,0.0003165,69.9992,188.6786,268.4346,91.645,0.00011636,1.296e-05,0.0,0 STARLINK-6064,1 56805U 23078AQ  23361.81927455  .00001296  00000-0  11636-3 0  9998,2 56805  69.9992 188.6786 0003165 268.4346  91.6450 14.98331356 33174,6950.189,96.107,574.253,569.854,0.0
56805.0,STARLINK-6064,PAYLOAD,2023-12-27 21:15:53,14.98328662,0.0003221,69.9992,188.5103,269.1563,90.9227,0.00014905,1.686e-05,0.0,0 STARLINK-6064,1 56805U 23078AQ  23361.88603538  .00001686  00000-0  14905-3 0  9993,2 56805  69.9992 188.5103 0003221 269.1563  90.9227 14.98328662 32920,6950.197,96.107,574.301,569.823,0.0
56805.0,STARLINK-6064,PAYLOAD,2023-12-27 22:52:01,14.98338819,0.0003043,69.9995,188.343,267.8026,92.2785,8.6061e-05,9.34e-06,0.0,0 STARLINK-6064,1 56805U 23078AQ  23361.95279008  .00000934  00000-0  86061-4 0  9990,2 56805  69.9995 188.3430 0003043 267.8026  92.2785 14.98338819 33194,6950.166,96.106,574.146,569.916,0.0
56805.0,STARLINK-6064,PAYLOAD,2023-12-28 11:41:03,14.98360285,0.0003536,69.9982,186.9955,274.3888,85.6867,0.00027159,3.152e-05,0.0,0 STARLINK-6064,1 56805U 23078AQ  23362.48684402  .00003152  00000-0  27159-3 0  9994,2 56805  69.9982 186.9955 0003536 274.3888  85.6867 14.98360285 33270,6950.099,96.105,574.422,569.507,0.0
56805.0,STARLINK-6064,PAYLOAD,2023-12-28 14:53:18,14.98364057,0.0003104,69.9993,186.6597,268.3368,91.7436,0.00030134,3.507e-05,0.0,0 STARLINK-6064,1 56805U 23078AQ  23362.62035800  .00003507  00000-0  30134-3 0  9993,2 56805  69.9993 186.6597 0003104 268.3368  91.7436 14.98364057 33033,6950.088,96.105,574.11,569.795,0.0
56805.0,STARLINK-6064,PAYLOAD,2023-12-28 19:41:42,14.98365672,0.0003025,69.9994,186.1547,267.5813,92.5,0.00030611,3.565e-05,0.0,0 STARLINK-6064,1 56805U 23078AQ  23362.82063238  .00003565  00000-0  30611-3 0  9995,2 56805  69.9994 186.1547 0003025 267.5813  92.5000 14.98365672 33324,6950.083,96.105,574.05,569.845,0.0
56805.0,STARLINK-6064,PAYLOAD,2023-12-28 21:17:50,14.98377136,0.0002661,69.9992,185.9865,262.0671,98.0187,0.00014709,1.665e-05,0.0,0 STARLINK-6064,1 56805U 23078AQ  23362.88738765  .00001665  00000-0  14709-3 0  9994,2 56805  69.9992 185.9865 0002661 262.0671  98.0187 14.98377136 33076,6950.047,96.104,573.762,570.063,0.0
56805.0,STARLINK-6064,PAYLOAD,2023-12-29 14:55:20,14.98339544,0.0003124,69.9991,184.1361,268.0411,92.039,-0.00011494,-1.465e-05,0.0,0 STARLINK-6064,1 56805U 23078AQ  23363.62176956 -.00001465  00000-0 -11494-3 0  9993,2 56805  69.9991 184.1361 0003124 268.0411  92.0390 14.98339544 33183,6950.163,96.106,574.2,569.857,0.0
56805.0,STARLINK-6064,PAYLOAD,2023-12-29 19:43:45,14.9833579,0.0003304,69.9988,183.6303,271.6549,88.4231,-0.00013638,-1.72e-05,0.0,0 STARLINK-6064,1 56805U 23078AQ  23363.82205066 -.00001720  00000-0 -13638-3 0  9996,2 56805  69.9988 183.6303 0003304 271.6549  88.4231 14.98335790 33475,6950.175,96.107,574.336,569.744,0.0
56805.0,STARLINK-6064,PAYLOAD,2023-12-29 21:19:53,14.98334614,0.0003337,69.9987,183.4616,273.066,87.0117,-0.00014875,-1.868e-05,0.0,0 STARLINK-6064,1 56805U 23078AQ  23363.88881129 -.00001868  00000-0 -14875-3 0  9999,2 56805  69.9987 183.4616 0003337 273.0660  87.0117 14.98334614 33220,6950.179,96.107,574.363,569.724,0.0
56805.0,STARLINK-6064,PAYLOAD,2023-12-30 14:57:21,14.98341967,0.0003213,69.9989,181.61,273.7005,86.3787,-0.00037497,-4.566e-05,0.0,0 STARLINK-6064,1 56805U 23078AQ  23364.62316807 -.00004566  00000-0 -37497-3 0  9991,2 56805  69.9989 181.6100 0003213 273.7005  86.3787 14.98341967 33339,6950.156,96.106,574.254,569.788,0.0
